{"type":"FeatureCollection","name":"punti_pianificati","generato":"2026-09-08","crs_note":"WGS84 (EPSG:4326); x_pian/y_pian in EPSG:32633","features":[{"type":"Feature","geometry":{"type":"Point","coordinates":[16.647994,40.6217]},"properties":{"ads_id":"GM-LEC-01","gruppo":"GM","strato":"GM-LEC","tipologia_forestale":"Leccete e boschi misti termofili","habitat_atteso":"9340 / 91AA*","ruolo":"principale","punto_ascolto":0,"sito_n2000":"IT9220135","sito_nome":"Gravine di Matera","comune":"Matera","habitat_rsdi":"9340","carta_forestale":"Boschi di leccio","x_pian":639391.2,"y_pian":4498068.9,"lat_pian":40.6217,"lon_pian":16.647994}},{"type":"Feature","geometry":{"type":"Point","coordinates":[16.618345,40.669464]},"properties":{"ads_id":"GM-LEC-02","gruppo":"GM","strato":"GM-LEC","tipologia_forestale":"Leccete e boschi misti termofili","habitat_atteso":"9340 / 91AA*","ruolo":"principale","punto_ascolto":1,"sito_n2000":"IT9220135","sito_nome":"Gravine di Matera","comune":"Matera","habitat_rsdi":"9340","carta_forestale":null,"x_pian":636785.8,"y_pian":4503324.6,"lat_pian":40.669464,"lon_pian":16.618345}},{"type":"Feature","geometry":{"type":"Point","coordinates":[16.712531,40.614802]},"properties":{"ads_id":"GM-LEC-03","gruppo":"GM","strato":"GM-LEC","tipologia_forestale":"Leccete e boschi misti termofili","habitat_atteso":"9340 / 91AA*","ruolo":"principale","punto_ascolto":1,"sito_n2000":"IT9220135","sito_nome":"Gravine di Matera","comune":"Matera","habitat_rsdi":null,"carta_forestale":null,"x_pian":644865.1,"y_pian":4497407.4,"lat_pian":40.614802,"lon_pian":16.712531}},{"type":"Feature","geometry":{"type":"Point","coordinates":[16.677189,40.585528]},"properties":{"ads_id":"GM-LEC-04","gruppo":"GM","strato":"GM-LEC","tipologia_forestale":"Leccete e boschi misti termofili","habitat_atteso":"9340 / 91AA*","ruolo":"principale","punto_ascolto":0,"sito_n2000":"IT9220135","sito_nome":"Gravine di Matera","comune":"Montescaglioso","habitat_rsdi":"9340","carta_forestale":"Macchia","x_pian":641937.2,"y_pian":4494100.1,"lat_pian":40.585528,"lon_pian":16.677189}},{"type":"Feature","geometry":{"type":"Point","coordinates":[16.651786,40.653425]},"properties":{"ads_id":"GM-LEC-05","gruppo":"GM","strato":"GM-LEC","tipologia_forestale":"Leccete e boschi misti termofili","habitat_atteso":"9340 / 91AA*","ruolo":"principale","punto_ascolto":0,"sito_n2000":"IT9220135","sito_nome":"Gravine di Matera","comune":"Matera","habitat_rsdi":"9340","carta_forestale":"Macchia","x_pian":639645.8,"y_pian":4501596.7,"lat_pian":40.653425,"lon_pian":16.651786}},{"type":"Feature","geometry":{"type":"Point","coordinates":[16.676926,40.635187]},"properties":{"ads_id":"GM-LEC-06","gruppo":"GM","strato":"GM-LEC","tipologia_forestale":"Leccete e boschi misti termofili","habitat_atteso":"9340 / 91AA*","ruolo":"principale","punto_ascolto":1,"sito_n2000":"IT9220135","sito_nome":"Gravine di Matera","comune":"Matera","habitat_rsdi":null,"carta_forestale":"Boschi di leccio","x_pian":641809.9,"y_pian":4499612.3,"lat_pian":40.635187,"lon_pian":16.676926}},{"type":"Feature","geometry":{"type":"Point","coordinates":[16.67216,40.608371]},"properties":{"ads_id":"GM-LEC-07","gruppo":"GM","strato":"GM-LEC","tipologia_forestale":"Leccete e boschi misti termofili","habitat_atteso":"9340 / 91AA*","ruolo":"principale","punto_ascolto":0,"sito_n2000":"IT9220135","sito_nome":"Gravine di Matera","comune":"Matera","habitat_rsdi":null,"carta_forestale":"Macchia","x_pian":641463.4,"y_pian":4496627.8,"lat_pian":40.608371,"lon_pian":16.67216}},{"type":"Feature","geometry":{"type":"Point","coordinates":[16.62615,40.651803]},"properties":{"ads_id":"GM-LEC-08","gruppo":"GM","strato":"GM-LEC","tipologia_forestale":"Leccete e boschi misti termofili","habitat_atteso":"9340 / 91AA*","ruolo":"principale","punto_ascolto":1,"sito_n2000":"IT9220135","sito_nome":"Gravine di Matera","comune":"Matera","habitat_rsdi":"9340","carta_forestale":"Boschi di leccio","x_pian":637481.7,"y_pian":4501376.3,"lat_pian":40.651803,"lon_pian":16.62615}},{"type":"Feature","geometry":{"type":"Point","coordinates":[16.634793,40.635791]},"properties":{"ads_id":"GM-LEC-09","gruppo":"GM","strato":"GM-LEC","tipologia_forestale":"Leccete e boschi misti termofili","habitat_atteso":"9340 / 91AA*","ruolo":"principale","punto_ascolto":0,"sito_n2000":"IT9220135","sito_nome":"Gravine di Matera","comune":"Matera","habitat_rsdi":"9340","carta_forestale":"Boschi di leccio","x_pian":638245.5,"y_pian":4499612.3,"lat_pian":40.635791,"lon_pian":16.634793}},{"type":"Feature","geometry":{"type":"Point","coordinates":[16.691572,40.619084]},"properties":{"ads_id":"GM-LEC-10","gruppo":"GM","strato":"GM-LEC","tipologia_forestale":"Leccete e boschi misti termofili","habitat_atteso":"9340 / 91AA*","ruolo":"principale","punto_ascolto":0,"sito_n2000":"IT9220135","sito_nome":"Gravine di Matera","comune":"Matera","habitat_rsdi":null,"carta_forestale":"Boschi di leccio","x_pian":643082.9,"y_pian":4497848.4,"lat_pian":40.619084,"lon_pian":16.691572}},{"type":"Feature","geometry":{"type":"Point","coordinates":[16.653488,40.608421]},"properties":{"ads_id":"GM-LEC-11","gruppo":"GM","strato":"GM-LEC","tipologia_forestale":"Leccete e boschi misti termofili","habitat_atteso":"9340 / 91AA*","ruolo":"principale","punto_ascolto":1,"sito_n2000":"IT9220135","sito_nome":"Gravine di Matera","comune":"Matera","habitat_rsdi":null,"carta_forestale":"Macchia","x_pian":639883.6,"y_pian":4496603.6,"lat_pian":40.608421,"lon_pian":16.653488}},{"type":"Feature","geometry":{"type":"Point","coordinates":[16.66078,40.630243]},"properties":{"ads_id":"GM-LEC-12","gruppo":"GM","strato":"GM-LEC","tipologia_forestale":"Leccete e boschi misti termofili","habitat_atteso":"9340 / 91AA*","ruolo":"principale","punto_ascolto":0,"sito_n2000":"IT9220135","sito_nome":"Gravine di Matera","comune":"Matera","habitat_rsdi":null,"carta_forestale":"Boschi di leccio","x_pian":640454.8,"y_pian":4499037.6,"lat_pian":40.630243,"lon_pian":16.66078}},{"type":"Feature","geometry":{"type":"Point","coordinates":[16.692325,40.589279]},"properties":{"ads_id":"GM-LEC-13","gruppo":"GM","strato":"GM-LEC","tipologia_forestale":"Leccete e boschi misti termofili","habitat_atteso":"9340 / 91AA*","ruolo":"principale","punto_ascolto":1,"sito_n2000":"IT9220135","sito_nome":"Gravine di Matera","comune":"Montescaglioso","habitat_rsdi":null,"carta_forestale":null,"x_pian":643210.2,"y_pian":4494541.1,"lat_pian":40.589279,"lon_pian":16.692325}},{"type":"Feature","geometry":{"type":"Point","coordinates":[16.654502,40.641469]},"properties":{"ads_id":"GM-LEC-14","gruppo":"GM","strato":"GM-LEC","tipologia_forestale":"Leccete e boschi misti termofili","habitat_atteso":"9340 / 91AA*","ruolo":"principale","punto_ascolto":1,"sito_n2000":"IT9220135","sito_nome":"Gravine di Matera","comune":"Matera","habitat_rsdi":"9340","carta_forestale":"Macchia","x_pian":639900.4,"y_pian":4500273.8,"lat_pian":40.641469,"lon_pian":16.654502}},{"type":"Feature","geometry":{"type":"Point","coordinates":[16.698842,40.609046]},"properties":{"ads_id":"GM-LEC-15","gruppo":"GM","strato":"GM-LEC","tipologia_forestale":"Leccete e boschi misti termofili","habitat_atteso":"9340 / 91AA*","ruolo":"principale","punto_ascolto":0,"sito_n2000":"IT9220135","sito_nome":"Gravine di Matera","comune":"Matera","habitat_rsdi":null,"carta_forestale":"Boschi di leccio","x_pian":643719.4,"y_pian":4496746.0,"lat_pian":40.609046,"lon_pian":16.698842}},{"type":"Feature","geometry":{"type":"Point","coordinates":[16.661983,40.599076]},"properties":{"ads_id":"GM-LEC-16","gruppo":"GM","strato":"GM-LEC","tipologia_forestale":"Leccete e boschi misti termofili","habitat_atteso":"9340 / 91AA*","ruolo":"riserva","punto_ascolto":0,"sito_n2000":"IT9220135","sito_nome":"Gravine di Matera","comune":"Matera","habitat_rsdi":"9340","carta_forestale":"Macchia","x_pian":640621.9,"y_pian":4495579.7,"lat_pian":40.599076,"lon_pian":16.661983}},{"type":"Feature","geometry":{"type":"Point","coordinates":[16.67864,40.596585]},"properties":{"ads_id":"GM-LEC-17","gruppo":"GM","strato":"GM-LEC","tipologia_forestale":"Leccete e boschi misti termofili","habitat_atteso":"9340 / 91AA*","ruolo":"riserva","punto_ascolto":0,"sito_n2000":"IT9220135","sito_nome":"Gravine di Matera","comune":"Montescaglioso","habitat_rsdi":null,"carta_forestale":"Macchia","x_pian":642036.6,"y_pian":4495329.9,"lat_pian":40.596585,"lon_pian":16.67864}},{"type":"Feature","geometry":{"type":"Point","coordinates":[16.64256,40.645612]},"properties":{"ads_id":"GM-LEC-18","gruppo":"GM","strato":"GM-LEC","tipologia_forestale":"Leccete e boschi misti termofili","habitat_atteso":"9340 / 91AA*","ruolo":"riserva","punto_ascolto":0,"sito_n2000":"IT9220135","sito_nome":"Gravine di Matera","comune":"Matera","habitat_rsdi":"9340","carta_forestale":"Boschi di leccio","x_pian":638882.0,"y_pian":4500714.8,"lat_pian":40.645612,"lon_pian":16.64256}},{"type":"Feature","geometry":{"type":"Point","coordinates":[16.71709,40.595304]},"properties":{"ads_id":"GM-FRA-01","gruppo":"GM","strato":"GM-FRA","tipologia_forestale":"Boschi di fragno (Quercus trojana)","habitat_atteso":"9250","ruolo":"principale","punto_ascolto":1,"sito_n2000":"IT9220135","sito_nome":"Gravine di Matera","comune":"Matera","habitat_rsdi":"9250","carta_forestale":null,"x_pian":645292.9,"y_pian":4495250.4,"lat_pian":40.595304,"lon_pian":16.71709}},{"type":"Feature","geometry":{"type":"Point","coordinates":[16.708341,40.601678]},"properties":{"ads_id":"GM-FRA-02","gruppo":"GM","strato":"GM-FRA","tipologia_forestale":"Boschi di fragno (Quercus trojana)","habitat_atteso":"9250","ruolo":"principale","punto_ascolto":1,"sito_n2000":"IT9220135","sito_nome":"Gravine di Matera","comune":"Matera","habitat_rsdi":"9250","carta_forestale":"Boschi di pini mediterranei","x_pian":644538.9,"y_pian":4495943.6,"lat_pian":40.601678,"lon_pian":16.708341}},{"type":"Feature","geometry":{"type":"Point","coordinates":[16.663452,40.62125]},"properties":{"ads_id":"GM-FRA-03","gruppo":"GM","strato":"GM-FRA","tipologia_forestale":"Boschi di fragno (Quercus trojana)","habitat_atteso":"9250","ruolo":"principale","punto_ascolto":1,"sito_n2000":"IT9220135","sito_nome":"Gravine di Matera","comune":"Matera","habitat_rsdi":"9250","carta_forestale":"Macchia","x_pian":640699.7,"y_pian":4498043.5,"lat_pian":40.62125,"lon_pian":16.663452}},{"type":"Feature","geometry":{"type":"Point","coordinates":[16.719245,40.607822]},"properties":{"ads_id":"GM-FRA-04","gruppo":"GM","strato":"GM-FRA","tipologia_forestale":"Boschi di fragno (Quercus trojana)","habitat_atteso":"9250","ruolo":"principale","punto_ascolto":0,"sito_n2000":"IT9220135","sito_nome":"Gravine di Matera","comune":"Matera","habitat_rsdi":null,"carta_forestale":"Querceti mesofili e meso-termofili","x_pian":645448.2,"y_pian":4496643.6,"lat_pian":40.607822,"lon_pian":16.719245}},{"type":"Feature","geometry":{"type":"Point","coordinates":[16.68564,40.624869]},"properties":{"ads_id":"GM-FRA-05","gruppo":"GM","strato":"GM-FRA","tipologia_forestale":"Boschi di fragno (Quercus trojana)","habitat_atteso":"9250","ruolo":"principale","punto_ascolto":0,"sito_n2000":"IT9220135","sito_nome":"Gravine di Matera","comune":"Matera","habitat_rsdi":"9250","carta_forestale":"Macchia","x_pian":642568.8,"y_pian":4498481.0,"lat_pian":40.624869,"lon_pian":16.68564}},{"type":"Feature","geometry":{"type":"Point","coordinates":[16.70944,40.621366]},"properties":{"ads_id":"GM-FRA-06","gruppo":"GM","strato":"GM-FRA","tipologia_forestale":"Boschi di fragno (Quercus trojana)","habitat_atteso":"9250","ruolo":"principale","punto_ascolto":0,"sito_n2000":"IT9220135","sito_nome":"Gravine di Matera","comune":"Matera","habitat_rsdi":null,"carta_forestale":"Querceti mesofili e meso-termofili","x_pian":644589.4,"y_pian":4498131.0,"lat_pian":40.621366,"lon_pian":16.70944}},{"type":"Feature","geometry":{"type":"Point","coordinates":[16.698654,40.619949]},"properties":{"ads_id":"GM-FRA-07","gruppo":"GM","strato":"GM-FRA","tipologia_forestale":"Boschi di fragno (Quercus trojana)","habitat_atteso":"9250","ruolo":"principale","punto_ascolto":0,"sito_n2000":"IT9220135","sito_nome":"Gravine di Matera","comune":"Matera","habitat_rsdi":"9250","carta_forestale":"Boschi di leccio","x_pian":643680.1,"y_pian":4497956.0,"lat_pian":40.619949,"lon_pian":16.698654}},{"type":"Feature","geometry":{"type":"Point","coordinates":[16.692187,40.623985]},"properties":{"ads_id":"GM-FRA-08","gruppo":"GM","strato":"GM-FRA","tipologia_forestale":"Boschi di fragno (Quercus trojana)","habitat_atteso":"9250","ruolo":"principale","punto_ascolto":1,"sito_n2000":"IT9220135","sito_nome":"Gravine di Matera","comune":"Matera","habitat_rsdi":"9250","carta_forestale":"Macchia","x_pian":643124.4,"y_pian":4498393.5,"lat_pian":40.623985,"lon_pian":16.692187}},{"type":"Feature","geometry":{"type":"Point","coordinates":[16.713934,40.610265]},"properties":{"ads_id":"GM-FRA-09","gruppo":"GM","strato":"GM-FRA","tipologia_forestale":"Boschi di fragno (Quercus trojana)","habitat_atteso":"9250","ruolo":"riserva","punto_ascolto":0,"sito_n2000":"IT9220135","sito_nome":"Gravine di Matera","comune":"Matera","habitat_rsdi":null,"carta_forestale":"Querceti mesofili e meso-termofili","x_pian":644993.5,"y_pian":4496906.1,"lat_pian":40.610265,"lon_pian":16.713934}},{"type":"Feature","geometry":{"type":"Point","coordinates":[16.688984,40.615362]},"properties":{"ads_id":"GM-FRA-10","gruppo":"GM","strato":"GM-FRA","tipologia_forestale":"Boschi di fragno (Quercus trojana)","habitat_atteso":"9250","ruolo":"riserva","punto_ascolto":0,"sito_n2000":"IT9220135","sito_nome":"Gravine di Matera","comune":"Matera","habitat_rsdi":"9250","carta_forestale":"Macchia","x_pian":642871.9,"y_pian":4497431.1,"lat_pian":40.615362,"lon_pian":16.688984}},{"type":"Feature","geometry":{"type":"Point","coordinates":[16.705059,40.591683]},"properties":{"ads_id":"GM-MAC-01","gruppo":"GM","strato":"GM-MAC","tipologia_forestale":"Macchia alta e formazioni pre-forestali","habitat_atteso":"5330 / 9340 in evoluzione","ruolo":"principale","punto_ascolto":0,"sito_n2000":"IT9220135","sito_nome":"Gravine di Matera","comune":"Montescaglioso","habitat_rsdi":null,"carta_forestale":"Macchia","x_pian":644282.6,"y_pian":4494828.7,"lat_pian":40.591683,"lon_pian":16.705059}},{"type":"Feature","geometry":{"type":"Point","coordinates":[16.68943,40.602408]},"properties":{"ads_id":"GM-MAC-02","gruppo":"GM","strato":"GM-MAC","tipologia_forestale":"Macchia alta e formazioni pre-forestali","habitat_atteso":"5330 / 9340 in evoluzione","ruolo":"principale","punto_ascolto":1,"sito_n2000":"IT9220135","sito_nome":"Gravine di Matera","comune":"Matera","habitat_rsdi":null,"carta_forestale":"Macchia","x_pian":642937.2,"y_pian":4495993.8,"lat_pian":40.602408,"lon_pian":16.68943}},{"type":"Feature","geometry":{"type":"Point","coordinates":[16.646782,40.630697]},"properties":{"ads_id":"GM-MAC-03","gruppo":"GM","strato":"GM-MAC","tipologia_forestale":"Macchia alta e formazioni pre-forestali","habitat_atteso":"5330 / 9340 in evoluzione","ruolo":"principale","punto_ascolto":1,"sito_n2000":"IT9220135","sito_nome":"Gravine di Matera","comune":"Matera","habitat_rsdi":null,"carta_forestale":"Macchia","x_pian":639269.9,"y_pian":4499065.8,"lat_pian":40.630697,"lon_pian":16.646782}},{"type":"Feature","geometry":{"type":"Point","coordinates":[16.640236,40.653431]},"properties":{"ads_id":"GM-MAC-04","gruppo":"GM","strato":"GM-MAC","tipologia_forestale":"Macchia alta e formazioni pre-forestali","habitat_atteso":"5330 / 9340 in evoluzione","ruolo":"principale","punto_ascolto":1,"sito_n2000":"IT9220135","sito_nome":"Gravine di Matera","comune":"Matera","habitat_rsdi":null,"carta_forestale":"Macchia","x_pian":638669.3,"y_pian":4501579.1,"lat_pian":40.653431,"lon_pian":16.640236}},{"type":"Feature","geometry":{"type":"Point","coordinates":[16.65548,40.616435]},"properties":{"ads_id":"GM-MAC-05","gruppo":"GM","strato":"GM-MAC","tipologia_forestale":"Macchia alta e formazioni pre-forestali","habitat_atteso":"5330 / 9340 in evoluzione","ruolo":"principale","punto_ascolto":0,"sito_n2000":"IT9220135","sito_nome":"Gravine di Matera","comune":"Matera","habitat_rsdi":null,"carta_forestale":"Macchia","x_pian":640035.4,"y_pian":4497496.3,"lat_pian":40.616435,"lon_pian":16.65548}},{"type":"Feature","geometry":{"type":"Point","coordinates":[16.664368,40.640043]},"properties":{"ads_id":"GM-MAC-06","gruppo":"GM","strato":"GM-MAC","tipologia_forestale":"Macchia alta e formazioni pre-forestali","habitat_atteso":"5330 / 9340 in evoluzione","ruolo":"principale","punto_ascolto":0,"sito_n2000":"IT9220135","sito_nome":"Gravine di Matera","comune":"Matera","habitat_rsdi":null,"carta_forestale":"Macchia","x_pian":640737.7,"y_pian":4500131.2,"lat_pian":40.640043,"lon_pian":16.664368}},{"type":"Feature","geometry":{"type":"Point","coordinates":[16.676112,40.626218]},"properties":{"ads_id":"GM-MAC-07","gruppo":"GM","strato":"GM-MAC","tipologia_forestale":"Macchia alta e formazioni pre-forestali","habitat_atteso":"5330 / 9340 in evoluzione","ruolo":"principale","punto_ascolto":0,"sito_n2000":"IT9220135","sito_nome":"Gravine di Matera","comune":"Matera","habitat_rsdi":null,"carta_forestale":"Macchia","x_pian":641760.0,"y_pian":4498615.4,"lat_pian":40.626218,"lon_pian":16.676112}},{"type":"Feature","geometry":{"type":"Point","coordinates":[16.679824,40.615668]},"properties":{"ads_id":"GM-MAC-08","gruppo":"GM","strato":"GM-MAC","tipologia_forestale":"Macchia alta e formazioni pre-forestali","habitat_atteso":"5330 / 9340 in evoluzione","ruolo":"principale","punto_ascolto":1,"sito_n2000":"IT9220135","sito_nome":"Gravine di Matera","comune":"Matera","habitat_rsdi":null,"carta_forestale":"Macchia","x_pian":642096.4,"y_pian":4497450.3,"lat_pian":40.615668,"lon_pian":16.679824}},{"type":"Feature","geometry":{"type":"Point","coordinates":[16.668894,40.614754]},"properties":{"ads_id":"GM-MAC-09","gruppo":"GM","strato":"GM-MAC","tipologia_forestale":"Macchia alta e formazioni pre-forestali","habitat_atteso":"5330 / 9340 in evoluzione","ruolo":"riserva","punto_ascolto":0,"sito_n2000":"IT9220135","sito_nome":"Gravine di Matera","comune":"Matera","habitat_rsdi":null,"carta_forestale":"Macchia","x_pian":641173.7,"y_pian":4497331.2,"lat_pian":40.614754,"lon_pian":16.668894}},{"type":"Feature","geometry":{"type":"Point","coordinates":[16.644567,40.637168]},"properties":{"ads_id":"GM-MAC-10","gruppo":"GM","strato":"GM-MAC","tipologia_forestale":"Macchia alta e formazioni pre-forestali","habitat_atteso":"5330 / 9340 in evoluzione","ruolo":"riserva","punto_ascolto":0,"sito_n2000":"IT9220135","sito_nome":"Gravine di Matera","comune":"Matera","habitat_rsdi":null,"carta_forestale":"Macchia","x_pian":639069.2,"y_pian":4499780.5,"lat_pian":40.637168,"lon_pian":16.644567}},{"type":"Feature","geometry":{"type":"Point","coordinates":[16.698512,40.601505]},"properties":{"ads_id":"GM-CON-01","gruppo":"GM","strato":"GM-CON","tipologia_forestale":"Rimboschimenti di conifere","habitat_atteso":"— (non habitat)","ruolo":"principale","punto_ascolto":1,"sito_n2000":"IT9220135","sito_nome":"Gravine di Matera","comune":"Matera","habitat_rsdi":null,"carta_forestale":"Boschi di pini mediterranei","x_pian":643707.6,"y_pian":4495908.3,"lat_pian":40.601505,"lon_pian":16.698512}},{"type":"Feature","geometry":{"type":"Point","coordinates":[16.673383,40.601413]},"properties":{"ads_id":"GM-CON-02","gruppo":"GM","strato":"GM-CON","tipologia_forestale":"Rimboschimenti di conifere","habitat_atteso":"— (non habitat)","ruolo":"principale","punto_ascolto":0,"sito_n2000":"IT9220135","sito_nome":"Gravine di Matera","comune":"Matera","habitat_rsdi":null,"carta_forestale":"Macchia","x_pian":641581.6,"y_pian":4495857.4,"lat_pian":40.601413,"lon_pian":16.673383}},{"type":"Feature","geometry":{"type":"Point","coordinates":[16.692948,40.597264]},"properties":{"ads_id":"GM-CON-03","gruppo":"GM","strato":"GM-CON","tipologia_forestale":"Rimboschimenti di conifere","habitat_atteso":"— (non habitat)","ruolo":"principale","punto_ascolto":1,"sito_n2000":"IT9220135","sito_nome":"Gravine di Matera","comune":"Matera","habitat_rsdi":null,"carta_forestale":"Boschi di pini mediterranei","x_pian":643245.8,"y_pian":4495428.5,"lat_pian":40.597264,"lon_pian":16.692948}},{"type":"Feature","geometry":{"type":"Point","coordinates":[16.706406,40.611475]},"properties":{"ads_id":"GM-CON-04","gruppo":"GM","strato":"GM-CON","tipologia_forestale":"Rimboschimenti di conifere","habitat_atteso":"— (non habitat)","ruolo":"principale","punto_ascolto":1,"sito_n2000":"IT9220135","sito_nome":"Gravine di Matera","comune":"Matera","habitat_rsdi":null,"carta_forestale":"Boschi di pini mediterranei","x_pian":644354.0,"y_pian":4497028.0,"lat_pian":40.611475,"lon_pian":16.706406}},{"type":"Feature","geometry":{"type":"Point","coordinates":[16.7099,40.596187]},"properties":{"ads_id":"GM-CON-05","gruppo":"GM","strato":"GM-CON","tipologia_forestale":"Rimboschimenti di conifere","habitat_atteso":"— (non habitat)","ruolo":"principale","punto_ascolto":0,"sito_n2000":"IT9220135","sito_nome":"Gravine di Matera","comune":"Matera","habitat_rsdi":null,"carta_forestale":"Boschi di pini mediterranei","x_pian":644682.6,"y_pian":4495336.7,"lat_pian":40.596187,"lon_pian":16.7099}},{"type":"Feature","geometry":{"type":"Point","coordinates":[16.704077,40.605746]},"properties":{"ads_id":"GM-CON-06","gruppo":"GM","strato":"GM-CON","tipologia_forestale":"Rimboschimenti di conifere","habitat_atteso":"— (non habitat)","ruolo":"principale","punto_ascolto":0,"sito_n2000":"IT9220135","sito_nome":"Gravine di Matera","comune":"Matera","habitat_rsdi":null,"carta_forestale":"Boschi di pini mediterranei","x_pian":644169.3,"y_pian":4496388.2,"lat_pian":40.605746,"lon_pian":16.704077}},{"type":"Feature","geometry":{"type":"Point","coordinates":[16.672183,40.596125]},"properties":{"ads_id":"GM-CON-07","gruppo":"GM","strato":"GM-CON","tipologia_forestale":"Rimboschimenti di conifere","habitat_atteso":"— (non habitat)","ruolo":"principale","punto_ascolto":1,"sito_n2000":"IT9220135","sito_nome":"Gravine di Matera","comune":"Matera","habitat_rsdi":null,"carta_forestale":"Macchia","x_pian":641491.2,"y_pian":4495268.5,"lat_pian":40.596125,"lon_pian":16.672183}},{"type":"Feature","geometry":{"type":"Point","coordinates":[16.69821,40.587793]},"properties":{"ads_id":"GM-CON-08","gruppo":"GM","strato":"GM-CON","tipologia_forestale":"Rimboschimenti di conifere","habitat_atteso":"— (non habitat)","ruolo":"principale","punto_ascolto":0,"sito_n2000":"IT9220135","sito_nome":"Gravine di Matera","comune":"Montescaglioso","habitat_rsdi":null,"carta_forestale":"Boschi di pini mediterranei","x_pian":643711.4,"y_pian":4494385.7,"lat_pian":40.587793,"lon_pian":16.69821}},{"type":"Feature","geometry":{"type":"Point","coordinates":[16.703857,40.597103]},"properties":{"ads_id":"GM-CON-09","gruppo":"GM","strato":"GM-CON","tipologia_forestale":"Rimboschimenti di conifere","habitat_atteso":"— (non habitat)","ruolo":"principale","punto_ascolto":0,"sito_n2000":"IT9220135","sito_nome":"Gravine di Matera","comune":"Matera","habitat_rsdi":null,"carta_forestale":"Boschi di pini mediterranei","x_pian":644169.3,"y_pian":4495428.5,"lat_pian":40.597103,"lon_pian":16.703857}},{"type":"Feature","geometry":{"type":"Point","coordinates":[16.687903,40.598938]},"properties":{"ads_id":"GM-CON-10","gruppo":"GM","strato":"GM-CON","tipologia_forestale":"Rimboschimenti di conifere","habitat_atteso":"— (non habitat)","ruolo":"riserva","punto_ascolto":0,"sito_n2000":"IT9220135","sito_nome":"Gravine di Matera","comune":"Matera","habitat_rsdi":null,"carta_forestale":"Boschi di pini mediterranei","x_pian":642815.4,"y_pian":4495606.1,"lat_pian":40.598938,"lon_pian":16.687903}},{"type":"Feature","geometry":{"type":"Point","coordinates":[16.708203,40.608417]},"properties":{"ads_id":"GM-CON-11","gruppo":"GM","strato":"GM-CON","tipologia_forestale":"Rimboschimenti di conifere","habitat_atteso":"— (non habitat)","ruolo":"riserva","punto_ascolto":0,"sito_n2000":"IT9220135","sito_nome":"Gravine di Matera","comune":"Matera","habitat_rsdi":null,"carta_forestale":"Boschi di pini mediterranei","x_pian":644512.6,"y_pian":4496691.5,"lat_pian":40.608417,"lon_pian":16.708203}},{"type":"Feature","geometry":{"type":"Point","coordinates":[16.199407,40.602702]},"properties":{"ads_id":"VB-RIP-01","gruppo":"VB","strato":"VB-RIP","tipologia_forestale":"Boschi ripariali a pioppo, salice, frassino","habitat_atteso":"92A0","ruolo":"principale","punto_ascolto":1,"sito_n2000":"IT9220260","sito_nome":"Valle Basento Grassano Scalo - Grottole","comune":"Calciano","habitat_rsdi":"6220","carta_forestale":"Macchia","x_pian":601476.4,"y_pian":4495346.1,"lat_pian":40.602702,"lon_pian":16.199407}},{"type":"Feature","geometry":{"type":"Point","coordinates":[16.79981,40.355035]},"properties":{"ads_id":"VB-RIP-02","gruppo":"VB","strato":"VB-RIP","tipologia_forestale":"Boschi ripariali a pioppo, salice, frassino","habitat_atteso":"92A0","ruolo":"principale","punto_ascolto":1,"sito_n2000":"IT9220085","sito_nome":"Costa Ionica Foce Basento","comune":"Pisticci","habitat_rsdi":"2260","carta_forestale":"Formazioni igrofile","x_pian":652836.7,"y_pian":4468718.5,"lat_pian":40.355035,"lon_pian":16.79981}},{"type":"Feature","geometry":{"type":"Point","coordinates":[16.477174,40.516923]},"properties":{"ads_id":"VB-RIP-03","gruppo":"VB","strato":"VB-RIP","tipologia_forestale":"Boschi ripariali a pioppo, salice, frassino","habitat_atteso":"92A0","ruolo":"principale","punto_ascolto":1,"sito_n2000":"IT9220255","sito_nome":"Valle Basento - Ferrandina Scalo","comune":"Ferrandina","habitat_rsdi":"3280","carta_forestale":"Formazioni igrofile","x_pian":625137.4,"y_pian":4486181.3,"lat_pian":40.516923,"lon_pian":16.477174}},{"type":"Feature","geometry":{"type":"Point","coordinates":[16.289977,40.587706]},"properties":{"ads_id":"VB-RIP-04","gruppo":"VB","strato":"VB-RIP","tipologia_forestale":"Boschi ripariali a pioppo, salice, frassino","habitat_atteso":"92A0","ruolo":"principale","punto_ascolto":1,"sito_n2000":"IT9220260","sito_nome":"Valle Basento Grassano Scalo - Grottole","comune":"Salandra","habitat_rsdi":"92A0","carta_forestale":"Formazioni igrofile","x_pian":609163.7,"y_pian":4493789.8,"lat_pian":40.587706,"lon_pian":16.289977}},{"type":"Feature","geometry":{"type":"Point","coordinates":[16.246283,40.603911]},"properties":{"ads_id":"VB-RIP-05","gruppo":"VB","strato":"VB-RIP","tipologia_forestale":"Boschi ripariali a pioppo, salice, frassino","habitat_atteso":"92A0","ruolo":"principale","punto_ascolto":1,"sito_n2000":"IT9220260","sito_nome":"Valle Basento Grassano Scalo - Grottole","comune":"Calciano","habitat_rsdi":"5330","carta_forestale":"Macchia","x_pian":605440.5,"y_pian":4495535.3,"lat_pian":40.603911,"lon_pian":16.246283}},{"type":"Feature","geometry":{"type":"Point","coordinates":[16.267205,40.594297]},"properties":{"ads_id":"VB-RIP-06","gruppo":"VB","strato":"VB-RIP","tipologia_forestale":"Boschi ripariali a pioppo, salice, frassino","habitat_atteso":"92A0","ruolo":"principale","punto_ascolto":1,"sito_n2000":"IT9220260","sito_nome":"Valle Basento Grassano Scalo - Grottole","comune":"Garaguso","habitat_rsdi":"92A0","carta_forestale":"Formazioni igrofile","x_pian":607226.0,"y_pian":4494493.4,"lat_pian":40.594297,"lon_pian":16.267205}},{"type":"Feature","geometry":{"type":"Point","coordinates":[16.222945,40.59934]},"properties":{"ads_id":"VB-RIP-07","gruppo":"VB","strato":"VB-RIP","tipologia_forestale":"Boschi ripariali a pioppo, salice, frassino","habitat_atteso":"92A0","ruolo":"principale","punto_ascolto":1,"sito_n2000":"IT9220260","sito_nome":"Valle Basento Grassano Scalo - Grottole","comune":"Calciano","habitat_rsdi":"92A0","carta_forestale":null,"x_pian":603473.1,"y_pian":4495000.2,"lat_pian":40.59934,"lon_pian":16.222945}},{"type":"Feature","geometry":{"type":"Point","coordinates":[16.494657,40.505761]},"properties":{"ads_id":"VB-RIP-08","gruppo":"VB","strato":"VB-RIP","tipologia_forestale":"Boschi ripariali a pioppo, salice, frassino","habitat_atteso":"92A0","ruolo":"principale","punto_ascolto":0,"sito_n2000":"IT9220255","sito_nome":"Valle Basento - Ferrandina Scalo","comune":"Ferrandina","habitat_rsdi":"3280","carta_forestale":null,"x_pian":626639.5,"y_pian":4484967.2,"lat_pian":40.505761,"lon_pian":16.494657}},{"type":"Feature","geometry":{"type":"Point","coordinates":[16.27957,40.598726]},"properties":{"ads_id":"VB-RIP-09","gruppo":"VB","strato":"VB-RIP","tipologia_forestale":"Boschi ripariali a pioppo, salice, frassino","habitat_atteso":"92A0","ruolo":"principale","punto_ascolto":0,"sito_n2000":"IT9220260","sito_nome":"Valle Basento Grassano Scalo - Grottole","comune":"Grassano","habitat_rsdi":"5330","carta_forestale":null,"x_pian":608265.2,"y_pian":4495000.2,"lat_pian":40.598726,"lon_pian":16.27957}},{"type":"Feature","geometry":{"type":"Point","coordinates":[16.235893,40.597644]},"properties":{"ads_id":"VB-RIP-10","gruppo":"VB","strato":"VB-RIP","tipologia_forestale":"Boschi ripariali a pioppo, salice, frassino","habitat_atteso":"92A0","ruolo":"principale","punto_ascolto":0,"sito_n2000":"IT9220260","sito_nome":"Valle Basento Grassano Scalo - Grottole","comune":"Calciano","habitat_rsdi":"92A0","carta_forestale":"Formazioni igrofile","x_pian":604571.3,"y_pian":4494827.3,"lat_pian":40.597644,"lon_pian":16.235893}},{"type":"Feature","geometry":{"type":"Point","coordinates":[16.218396,40.608735]},"properties":{"ads_id":"VB-RIP-11","gruppo":"VB","strato":"VB-RIP","tipologia_forestale":"Boschi ripariali a pioppo, salice, frassino","habitat_atteso":"92A0","ruolo":"principale","punto_ascolto":0,"sito_n2000":"IT9220260","sito_nome":"Valle Basento Grassano Scalo - Grottole","comune":"Calciano","habitat_rsdi":"5330","carta_forestale":"Macchia","x_pian":603073.7,"y_pian":4496037.7,"lat_pian":40.608735,"lon_pian":16.218396}},{"type":"Feature","geometry":{"type":"Point","coordinates":[16.278736,40.59018]},"properties":{"ads_id":"VB-RIP-12","gruppo":"VB","strato":"VB-RIP","tipologia_forestale":"Boschi ripariali a pioppo, salice, frassino","habitat_atteso":"92A0","ruolo":"principale","punto_ascolto":0,"sito_n2000":"IT9220260","sito_nome":"Valle Basento Grassano Scalo - Grottole","comune":"Garaguso","habitat_rsdi":"92A0","carta_forestale":"Formazioni igrofile","x_pian":608208.4,"y_pian":4494050.5,"lat_pian":40.59018,"lon_pian":16.278736}},{"type":"Feature","geometry":{"type":"Point","coordinates":[16.257127,40.597415]},"properties":{"ads_id":"VB-RIP-13","gruppo":"VB","strato":"VB-RIP","tipologia_forestale":"Boschi ripariali a pioppo, salice, frassino","habitat_atteso":"92A0","ruolo":"riserva","punto_ascolto":0,"sito_n2000":"IT9220260","sito_nome":"Valle Basento Grassano Scalo - Grottole","comune":"Grassano","habitat_rsdi":"92A0","carta_forestale":"Formazioni igrofile","x_pian":606368.3,"y_pian":4494827.3,"lat_pian":40.597415,"lon_pian":16.257127}},{"type":"Feature","geometry":{"type":"Point","coordinates":[16.208789,40.599489]},"properties":{"ads_id":"VB-RIP-14","gruppo":"VB","strato":"VB-RIP","tipologia_forestale":"Boschi ripariali a pioppo, salice, frassino","habitat_atteso":"92A0","ruolo":"riserva","punto_ascolto":0,"sito_n2000":"IT9220260","sito_nome":"Valle Basento Grassano Scalo - Grottole","comune":"Calciano","habitat_rsdi":"3250","carta_forestale":"Formazioni igrofile","x_pian":602275.1,"y_pian":4495000.2,"lat_pian":40.599489,"lon_pian":16.208789}},{"type":"Feature","geometry":{"type":"Point","coordinates":[16.816543,40.335893]},"properties":{"ads_id":"VB-TAM-01","gruppo":"VB","strato":"VB-TAM","tipologia_forestale":"Formazioni a tamerice e boscaglie golenali","habitat_atteso":"92D0","ruolo":"principale","punto_ascolto":1,"sito_n2000":"IT9220085","sito_nome":"Costa Ionica Foce Basento","comune":"Pisticci","habitat_rsdi":"92D0","carta_forestale":"Boschi di pini mediterranei","x_pian":654301.4,"y_pian":4466622.7,"lat_pian":40.335893,"lon_pian":16.816543}},{"type":"Feature","geometry":{"type":"Point","coordinates":[16.812751,40.349138]},"properties":{"ads_id":"VB-TAM-02","gruppo":"VB","strato":"VB-TAM","tipologia_forestale":"Formazioni a tamerice e boscaglie golenali","habitat_atteso":"92D0","ruolo":"principale","punto_ascolto":1,"sito_n2000":"IT9220085","sito_nome":"Costa Ionica Foce Basento","comune":"Bernalda","habitat_rsdi":"92D0","carta_forestale":"Formazioni igrofile","x_pian":653949.1,"y_pian":4468086.4,"lat_pian":40.349138,"lon_pian":16.812751}},{"type":"Feature","geometry":{"type":"Point","coordinates":[16.815044,40.341875]},"properties":{"ads_id":"VB-TAM-03","gruppo":"VB","strato":"VB-TAM","tipologia_forestale":"Formazioni a tamerice e boscaglie golenali","habitat_atteso":"92D0","ruolo":"principale","punto_ascolto":1,"sito_n2000":"IT9220085","sito_nome":"Costa Ionica Foce Basento","comune":"Pisticci","habitat_rsdi":"92D0","carta_forestale":null,"x_pian":654160.4,"y_pian":4467284.1,"lat_pian":40.341875,"lon_pian":16.815044}},{"type":"Feature","geometry":{"type":"Point","coordinates":[16.811364,40.345308]},"properties":{"ads_id":"VB-TAM-04","gruppo":"VB","strato":"VB-TAM","tipologia_forestale":"Formazioni a tamerice e boscaglie golenali","habitat_atteso":"92D0","ruolo":"principale","punto_ascolto":0,"sito_n2000":"IT9220085","sito_nome":"Costa Ionica Foce Basento","comune":"Bernalda","habitat_rsdi":"92D0","carta_forestale":null,"x_pian":653840.0,"y_pian":4467658.7,"lat_pian":40.345308,"lon_pian":16.811364}},{"type":"Feature","geometry":{"type":"Point","coordinates":[16.809089,40.351448]},"properties":{"ads_id":"VB-TAM-05","gruppo":"VB","strato":"VB-TAM","tipologia_forestale":"Formazioni a tamerice e boscaglie golenali","habitat_atteso":"92D0","ruolo":"principale","punto_ascolto":0,"sito_n2000":"IT9220085","sito_nome":"Costa Ionica Foce Basento","comune":"Pisticci","habitat_rsdi":"92D0","carta_forestale":"Formazioni igrofile","x_pian":653632.9,"y_pian":4468336.4,"lat_pian":40.351448,"lon_pian":16.809089}},{"type":"Feature","geometry":{"type":"Point","coordinates":[16.204649,40.60062]},"properties":{"ads_id":"VB-TAM-06","gruppo":"VB","strato":"VB-TAM","tipologia_forestale":"Formazioni a tamerice e boscaglie golenali","habitat_atteso":"92D0","ruolo":"principale","punto_ascolto":1,"sito_n2000":"IT9220260","sito_nome":"Valle Basento Grassano Scalo - Grottole","comune":"Calciano","habitat_rsdi":"92D0","carta_forestale":null,"x_pian":601923.0,"y_pian":4495121.0,"lat_pian":40.60062,"lon_pian":16.204649}},{"type":"Feature","geometry":{"type":"Point","coordinates":[16.223263,40.602619]},"properties":{"ads_id":"VB-TAM-07","gruppo":"VB","strato":"VB-TAM","tipologia_forestale":"Formazioni a tamerice e boscaglie golenali","habitat_atteso":"92D0","ruolo":"principale","punto_ascolto":0,"sito_n2000":"IT9220260","sito_nome":"Valle Basento Grassano Scalo - Grottole","comune":"Calciano","habitat_rsdi":"92D0","carta_forestale":null,"x_pian":603494.9,"y_pian":4495364.6,"lat_pian":40.602619,"lon_pian":16.223263}},{"type":"Feature","geometry":{"type":"Point","coordinates":[16.80317,40.354037]},"properties":{"ads_id":"VB-TAM-08","gruppo":"VB","strato":"VB-TAM","tipologia_forestale":"Formazioni a tamerice e boscaglie golenali","habitat_atteso":"92D0","ruolo":"principale","punto_ascolto":0,"sito_n2000":"IT9220085","sito_nome":"Costa Ionica Foce Basento","comune":"Pisticci","habitat_rsdi":"92D0","carta_forestale":"Formazioni igrofile","x_pian":653124.4,"y_pian":4468613.5,"lat_pian":40.354037,"lon_pian":16.80317}},{"type":"Feature","geometry":{"type":"Point","coordinates":[16.815401,40.338139]},"properties":{"ads_id":"VB-TAM-09","gruppo":"VB","strato":"VB-TAM","tipologia_forestale":"Formazioni a tamerice e boscaglie golenali","habitat_atteso":"92D0","ruolo":"riserva","punto_ascolto":0,"sito_n2000":"IT9220085","sito_nome":"Costa Ionica Foce Basento","comune":"Pisticci","habitat_rsdi":"92D0","carta_forestale":"Boschi di pini mediterranei","x_pian":654199.2,"y_pian":4466870.0,"lat_pian":40.338139,"lon_pian":16.815401}},{"type":"Feature","geometry":{"type":"Point","coordinates":[16.493581,40.529267]},"properties":{"ads_id":"VB-CON-01","gruppo":"VB","strato":"VB-CON","tipologia_forestale":"Rimboschimenti di conifere (Valle del Basento)","habitat_atteso":"— (non habitat)","ruolo":"opzionale","punto_ascolto":0,"sito_n2000":"IT9220255","sito_nome":"Valle Basento - Ferrandina Scalo","comune":"Pomarico","habitat_rsdi":"6220","carta_forestale":"Boschi di pini mediterranei","x_pian":626504.1,"y_pian":4487575.0,"lat_pian":40.529267,"lon_pian":16.493581}},{"type":"Feature","geometry":{"type":"Point","coordinates":[16.501326,40.518616]},"properties":{"ads_id":"VB-CON-02","gruppo":"VB","strato":"VB-CON","tipologia_forestale":"Rimboschimenti di conifere (Valle del Basento)","habitat_atteso":"— (non habitat)","ruolo":"opzionale","punto_ascolto":0,"sito_n2000":"IT9220255","sito_nome":"Valle Basento - Ferrandina Scalo","comune":"Pomarico","habitat_rsdi":null,"carta_forestale":"Boschi di pini mediterranei","x_pian":627180.3,"y_pian":4486403.8,"lat_pian":40.518616,"lon_pian":16.501326}},{"type":"Feature","geometry":{"type":"Point","coordinates":[16.489161,40.519964]},"properties":{"ads_id":"VB-CON-03","gruppo":"VB","strato":"VB-CON","tipologia_forestale":"Rimboschimenti di conifere (Valle del Basento)","habitat_atteso":"— (non habitat)","ruolo":"opzionale","punto_ascolto":0,"sito_n2000":"IT9220255","sito_nome":"Valle Basento - Ferrandina Scalo","comune":"Pomarico","habitat_rsdi":"6220","carta_forestale":"Boschi di pini mediterranei","x_pian":626147.2,"y_pian":4486536.0,"lat_pian":40.519964,"lon_pian":16.489161}},{"type":"Feature","geometry":{"type":"Point","coordinates":[16.789462,40.316312]},"properties":{"ads_id":"VB-PIN-01","gruppo":"VB","strato":"VB-PIN","tipologia_forestale":"Pinete litoranee (Foce Basento)","habitat_atteso":"2270* da verificare / rimboschimenti","ruolo":"opzionale","punto_ascolto":0,"sito_n2000":"IT9220085","sito_nome":"Costa Ionica Foce Basento","comune":"Pisticci","habitat_rsdi":"2260","carta_forestale":"Boschi di pini mediterranei","x_pian":652044.8,"y_pian":4464402.2,"lat_pian":40.316312,"lon_pian":16.789462}},{"type":"Feature","geometry":{"type":"Point","coordinates":[16.805714,40.325451]},"properties":{"ads_id":"VB-PIN-02","gruppo":"VB","strato":"VB-PIN","tipologia_forestale":"Pinete litoranee (Foce Basento)","habitat_atteso":"2270* da verificare / rimboschimenti","ruolo":"opzionale","punto_ascolto":0,"sito_n2000":"IT9220085","sito_nome":"Costa Ionica Foce Basento","comune":"Pisticci","habitat_rsdi":"2260","carta_forestale":"Boschi di pini mediterranei","x_pian":653405.1,"y_pian":4465444.7,"lat_pian":40.325451,"lon_pian":16.805714}},{"type":"Feature","geometry":{"type":"Point","coordinates":[16.803604,40.334873]},"properties":{"ads_id":"VB-PIN-03","gruppo":"VB","strato":"VB-PIN","tipologia_forestale":"Pinete litoranee (Foce Basento)","habitat_atteso":"2270* da verificare / rimboschimenti","ruolo":"opzionale","punto_ascolto":0,"sito_n2000":"IT9220085","sito_nome":"Costa Ionica Foce Basento","comune":"Pisticci","habitat_rsdi":"2260","carta_forestale":"Boschi di pini mediterranei","x_pian":653204.5,"y_pian":4466487.0,"lat_pian":40.334873,"lon_pian":16.803604}}]}